{
  "type": "FeatureCollection",
  "features": [
    {
      "type": "Feature",
      "properties": {
        "norad_id": 36585,
        "name": "GPS BIIF-1  (PRN 25)",
        "group": "gnss",
        "lat": 3.6137164458827713,
        "lon": 33.223912178074464,
        "alt_km": 20296.213311496784,
        "timestamp": "2025-12-19T04:59:48.547673+00:00",
        "meta_object_name": "GPS BIIF-1  (PRN 25)",
        "meta_object_id": "2010-022A",
        "meta_epoch": "2025-12-18T07:00:57.218688",
        "meta_mean_motion": 2.00553566,
        "meta_eccentricity": 0.01263334,
        "meta_inclination": 54.2992,
        "meta_ra_of_asc_node": 215.8499,
        "meta_arg_of_pericenter": 65.1411,
        "meta_mean_anomaly": 167.812,
        "meta_ephemeris_type": 0,
        "meta_classification_type": "U",
        "meta_norad_cat_id": 36585,
        "meta_element_set_no": 999,
        "meta_rev_at_epoch": 11396,
        "meta_bstar": 0,
        "meta_mean_motion_dot": 8.3e-07,
        "meta_mean_motion_ddot": 0,
        "tle_line1": "1 36585U 10022A   25352.29232892  .00000083  00000+0  00000+0 0  9995",
        "tle_line2": "2 36585  54.2992 215.8499 0126333  65.1411 167.8120  2.00553566113961"
      },
      "geometry": {
        "type": "Point",
        "coordinates": [
          33.223912178074464,
          3.6137164458827713
        ]
      }
    },
    {
      "type": "Feature",
      "properties": {
        "norad_id": 36828,
        "name": "BEIDOU-2 IGSO-1 (C06)",
        "group": "gnss",
        "lat": 51.30765276920878,
        "lon": -79.54463625678814,
        "alt_km": 35853.22079629613,
        "timestamp": "2025-12-19T04:59:48.547685+00:00",
        "meta_object_name": "BEIDOU-2 IGSO-1 (C06)",
        "meta_object_id": "2010-036A",
        "meta_epoch": "2025-12-14T21:38:21.623424",
        "meta_mean_motion": 1.00275796,
        "meta_eccentricity": 0.00512569,
        "meta_inclination": 54.2866,
        "meta_ra_of_asc_node": 164.6279,
        "meta_arg_of_pericenter": 215.8888,
        "meta_mean_anomaly": 135.7931,
        "meta_ephemeris_type": 0,
        "meta_classification_type": "U",
        "meta_norad_cat_id": 36828,
        "meta_element_set_no": 999,
        "meta_rev_at_epoch": 5624,
        "meta_bstar": 0,
        "meta_mean_motion_dot": -2.4e-07,
        "meta_mean_motion_ddot": 0,
        "tle_line1": "1 36828U 10036A   25348.90163916 -.00000024  00000+0  00000+0 0  9999",
        "tle_line2": "2 36828  54.2866 164.6279 0051256 215.8888 135.7931  1.00275796 56247"
      },
      "geometry": {
        "type": "Point",
        "coordinates": [
          -79.54463625678814,
          51.30765276920878
        ]
      }
    },
    {
      "type": "Feature",
      "properties": {
        "norad_id": 37210,
        "name": "BEIDOU-2 G4 (C04)",
        "group": "gnss",
        "lat": -3.0791856554028407,
        "lon": -36.83146973392545,
        "alt_km": 35764.7543623257,
        "timestamp": "2025-12-19T04:59:48.547698+00:00",
        "meta_object_name": "BEIDOU-2 G4 (C04)",
        "meta_object_id": "2010-057A",
        "meta_epoch": "2025-12-18T19:11:33.420768",
        "meta_mean_motion": 1.00272049,
        "meta_eccentricity": 0.00104469,
        "meta_inclination": 3.1991,
        "meta_ra_of_asc_node": 69.9164,
        "meta_arg_of_pericenter": 192.4779,
        "meta_mean_anomaly": 273.2335,
        "meta_ephemeris_type": 0,
        "meta_classification_type": "U",
        "meta_norad_cat_id": 37210,
        "meta_element_set_no": 999,
        "meta_rev_at_epoch": 5548,
        "meta_bstar": 0,
        "meta_mean_motion_dot": -8.9e-07,
        "meta_mean_motion_ddot": 0,
        "tle_line1": "1 37210U 10057A   25352.79969237 -.00000089  00000+0  00000+0 0  9991",
        "tle_line2": "2 37210   3.1991  69.9164 0010446 192.4779 273.2335  1.00272049 55489"
      },
      "geometry": {
        "type": "Point",
        "coordinates": [
          -36.83146973392545,
          -3.0791856554028407
        ]
      }
    },
    {
      "type": "Feature",
      "properties": {
        "norad_id": 37256,
        "name": "BEIDOU-2 IGSO-2 (C07)",
        "group": "gnss",
        "lat": -2.131334505663712,
        "lon": -87.87623060400864,
        "alt_km": 35941.13672556032,
        "timestamp": "2025-12-19T04:59:48.547710+00:00",
        "meta_object_name": "BEIDOU-2 IGSO-2 (C07)",
        "meta_object_id": "2010-068A",
        "meta_epoch": "2025-12-18T17:13:56.551296",
        "meta_mean_motion": 1.00284788,
        "meta_eccentricity": 0.00483763,
        "meta_inclination": 47.875,
        "meta_ra_of_asc_node": 274.0752,
        "meta_arg_of_pericenter": 216.347,
        "meta_mean_anomaly": 323.4971,
        "meta_ephemeris_type": 0,
        "meta_classification_type": "U",
        "meta_norad_cat_id": 37256,
        "meta_element_set_no": 999,
        "meta_rev_at_epoch": 5498,
        "meta_bstar": 0,
        "meta_mean_motion_dot": -2e-06,
        "meta_mean_motion_ddot": 0,
        "tle_line1": "1 37256U 10068A   25352.71801564 -.00000200  00000+0  00000+0 0  9998",
        "tle_line2": "2 37256  47.8750 274.0752 0048376 216.3470 323.4971  1.00284788 54987"
      },
      "geometry": {
        "type": "Point",
        "coordinates": [
          -87.87623060400864,
          -2.131334505663712
        ]
      }
    },
    {
      "type": "Feature",
      "properties": {
        "norad_id": 37384,
        "name": "BEIDOU-2 IGSO-3 (C08)",
        "group": "gnss",
        "lat": -41.67119957801927,
        "lon": -110.07085252001585,
        "alt_km": 35678.89645079465,
        "timestamp": "2025-12-19T04:59:48.547722+00:00",
        "meta_object_name": "BEIDOU-2 IGSO-3 (C08)",
        "meta_object_id": "2011-013A",
        "meta_epoch": "2025-12-18T16:17:49.029216",
        "meta_mean_motion": 1.00269421,
        "meta_eccentricity": 0.00353461,
        "meta_inclination": 62.1512,
        "meta_ra_of_asc_node": 41.8596,
        "meta_arg_of_pericenter": 187.8899,
        "meta_mean_anomaly": 209.6604,
        "meta_ephemeris_type": 0,
        "meta_classification_type": "U",
        "meta_norad_cat_id": 37384,
        "meta_element_set_no": 999,
        "meta_rev_at_epoch": 5385,
        "meta_bstar": 0,
        "meta_mean_motion_dot": -1.73e-06,
        "meta_mean_motion_ddot": 0,
        "tle_line1": "1 37384U 11013A   25352.67903969 -.00000173  00000+0  00000+0 0  9997",
        "tle_line2": "2 37384  62.1512  41.8596 0035346 187.8899 209.6604  1.00269421 53851"
      },
      "geometry": {
        "type": "Point",
        "coordinates": [
          -110.07085252001585,
          -41.67119957801927
        ]
      }
    },
    {
      "type": "Feature",
      "properties": {
        "norad_id": 37605,
        "name": "GSAT-8 (GAGAN/PRN 127)",
        "group": "gnss",
        "lat": 1.1808663530536512,
        "lon": -141.98000974079562,
        "alt_km": 35763.05979293689,
        "timestamp": "2025-12-19T04:59:48.547734+00:00",
        "meta_object_name": "GSAT-8 (GAGAN/PRN 127)",
        "meta_object_id": "2011-022A",
        "meta_epoch": "2025-12-18T22:20:38.925312",
        "meta_mean_motion": 1.00270538,
        "meta_eccentricity": 0.00087449,
        "meta_inclination": 1.6649,
        "meta_ra_of_asc_node": 84.1308,
        "meta_arg_of_pericenter": 185.2174,
        "meta_mean_anomaly": 208.684,
        "meta_ephemeris_type": 0,
        "meta_classification_type": "U",
        "meta_norad_cat_id": 37605,
        "meta_element_set_no": 999,
        "meta_rev_at_epoch": 5141,
        "meta_bstar": 0,
        "meta_mean_motion_dot": 1.08e-06,
        "meta_mean_motion_ddot": 0,
        "tle_line1": "1 37605U 11022A   25352.93100608  .00000108  00000+0  00000+0 0  9998",
        "tle_line2": "2 37605   1.6649  84.1308 0008744 185.2174 208.6840  1.00270538 51419"
      },
      "geometry": {
        "type": "Point",
        "coordinates": [
          -141.98000974079562,
          1.1808663530536512
        ]
      }
    },
    {
      "type": "Feature",
      "properties": {
        "norad_id": 37763,
        "name": "BEIDOU-2 IGSO-4 (C09)",
        "group": "gnss",
        "lat": 54.5112600707233,
        "lon": -104.0263205527715,
        "alt_km": 36263.583544660534,
        "timestamp": "2025-12-19T04:59:48.547746+00:00",
        "meta_object_name": "BEIDOU-2 IGSO-4 (C09)",
        "meta_object_id": "2011-038A",
        "meta_epoch": "2025-12-17T23:29:21.564384",
        "meta_mean_motion": 1.00281312,
        "meta_eccentricity": 0.01493143,
        "meta_inclination": 54.5836,
        "meta_ra_of_asc_node": 167.2999,
        "meta_arg_of_pericenter": 230.2426,
        "meta_mean_anomaly": 136.1954,
        "meta_ephemeris_type": 0,
        "meta_classification_type": "U",
        "meta_norad_cat_id": 37763,
        "meta_element_set_no": 999,
        "meta_rev_at_epoch": 5283,
        "meta_bstar": 0,
        "meta_mean_motion_dot": 6.5e-07,
        "meta_mean_motion_ddot": 0,
        "tle_line1": "1 37763U 11038A   25351.97872181  .00000065  00000+0  00000+0 0  9997",
        "tle_line2": "2 37763  54.5836 167.2999 0149314 230.2426 136.1954  1.00281312 52838"
      },
      "geometry": {
        "type": "Point",
        "coordinates": [
          -104.0263205527715,
          54.5112600707233
        ]
      }
    }
  ]
}